NORAD_CAT_ID,OBJECT_NAME,OBJECT_TYPE,EPOCH,MEAN_MOTION,ECCENTRICITY,INCLINATION,RA_OF_ASC_NODE,ARG_OF_PERICENTER,MEAN_ANOMALY,BSTAR,MEAN_MOTION_DOT,MEAN_MOTION_DDOT,TLE_LINE0,TLE_LINE1,TLE_LINE2,SEMIMAJOR_AXIS,PERIOD,APOGEE,PERIGEE,DECAYED
53405.0,STARLINK-4510,PAYLOAD,2022-09-30 14:00:01,15.08869673,0.000148,53.2201,2.9877,56.0331,123.1991,-0.00066187,-0.00010815,0.0,0 STARLINK-4510,1 53405U 22097T   22273.58334491 -.00010815  00000-0 -66187-3 0  9998,2 53405  53.2201   2.9877 0001480  56.0331 123.1991 15.08869673  1309,6917.79,95.436,540.679,538.631,0.0
53405.0,STARLINK-4510,PAYLOAD,2022-09-30 16:00:00,15.08862949,0.0001494,53.2201,2.6138,54.534,217.6073,1.8669e-05,9e-08,0.0,0 STARLINK-4510,1 53405U 22097T   22273.66667824  .00000009  00000-0  18669-4 0  9991,2 53405  53.2201   2.6138 0001494  54.5340 217.6073 15.08862949  8401,6917.81,95.436,540.7090000000002,538.6419999999998,0.0
53405.0,STARLINK-4510,PAYLOAD,2022-09-30 22:00:00,15.08883057,0.0001402,53.2198,1.4903,58.2509,132.611,-0.0044563,-0.00070598,0.0,0 STARLINK-4510,1 53405U 22097T   22273.91667824 -.00070598  00000-0 -44563-2 0  9991,2 53405  53.2198   1.4903 0001402  58.2509 132.6110 15.08883057  1303,6917.749,95.435,540.5840000000002,538.644,0.0
53405.0,STARLINK-4510,PAYLOAD,2022-10-01 14:00:01,15.08849643,0.0001519,53.2194,358.499,55.7728,158.3115,0.0012997999999999,0.00020464,0.0,0 STARLINK-4510,1 53405U 22097T   22274.58334491  .00020464  00000-0  12998-2 0  9998,2 53405  53.2194 358.4990 0001519  55.7728 158.3115 15.08849643  1307,6917.851,95.437,540.7669999999998,538.665,0.0
53405.0,STARLINK-4510,PAYLOAD,2022-10-01 22:00:00,15.08871364,0.0001409,53.2193,357.0012,59.3258,166.3455,-0.0053549,-0.00084583,0.0,0 STARLINK-4510,1 53405U 22097T   22274.91667824 -.00084583  00000-0 -53549-2 0  9995,2 53405  53.2193 357.0012 0001409  59.3258 166.3455 15.08871364  8591,6917.785,95.436,540.624,538.675,0.0
53405.0,STARLINK-4510,PAYLOAD,2022-10-02 14:00:01,15.0880892,0.0001512,53.2192,354.0099,55.5473,193.2919,0.0023877,0.00037884,0.0,0 STARLINK-4510,1 53405U 22097T   22275.58334491  .00037884  00000-0  23877-2 0  9991,2 53405  53.2192 354.0099 0001512  55.5473 193.2919 15.08808920  1308,6917.975,95.44,540.886,538.794,0.0
53405.0,STARLINK-4510,PAYLOAD,2022-10-02 22:00:00,15.08852238,0.0001412,53.219,352.5123,57.88399999999999,202.5309,-0.00055101,-9.049e-05,0.0,0 STARLINK-4510,1 53405U 22097T   22275.91667824 -.00009049  00000-0 -55101-3 0  9997,2 53405  53.2190 352.5123 0001412  57.8840 202.5309 15.08852238  1307,6917.843000000003,95.437,540.685,538.731,0.0
53405.0,STARLINK-4510,PAYLOAD,2022-10-03 14:00:01,15.08837175,0.0001653,53.2192,349.5208,56.3685,227.2838,0.0029889,0.00047598,0.0,0 STARLINK-4510,1 53405U 22097T   22276.58334491  .00047598  00000-0  29889-2 0  9994,2 53405  53.2192 349.5208 0001653  56.3685 227.2838 15.08837175  1301,6917.889,95.438,540.898,538.61,0.0
53405.0,STARLINK-4510,PAYLOAD,2022-10-03 22:00:00,15.08884892,0.0001446,53.2192,348.0231,56.0972,239.1656,-0.0047741,-0.00075564,0.0,0 STARLINK-4510,1 53405U 22097T   22276.91667824 -.00075564  00000-0 -47741-2 0  9993,2 53405  53.2192 348.0231 0001446  56.0972 239.1656 15.08884892  1305,6917.743,95.435,540.6080000000002,538.6080000000002,0.0
53405.0,STARLINK-4510,PAYLOAD,2022-10-04 06:00:00,15.088478,0.0001379,53.2193,346.5264,58.4534,248.4218,-0.00012748,-2.317e-05,0.0,0 STARLINK-4510,1 53405U 22097T   22277.25001157 -.00002317  00000-0 -12748-3 0  9998,2 53405  53.2193 346.5264 0001379  58.4534 248.4218 15.08847800  8953,6917.857,95.437,540.6759999999998,538.768,0.0
53405.0,STARLINK-4510,PAYLOAD,2022-10-04 14:00:01,15.08829238,0.0001541,53.2194,345.0318,49.4125,269.0757,-0.00019693,-3.4200000000000005e-05,0.0,0 STARLINK-4510,1 53405U 22097T   22277.58334491 -.00003420  00000-0 -19693-3 0  9996,2 53405  53.2194 345.0318 0001541  49.4125 269.0757 15.08829238  1309,6917.913000000001,95.438,540.844,538.712,0.0
53405.0,STARLINK-4510,PAYLOAD,2022-10-04 22:00:00,15.08820122,0.0001478,53.2196,343.5341,52.2051,277.8625,0.00039608,6.018e-05,0.0,0 STARLINK-4510,1 53405U 22097T   22277.91667824  .00006018  00000-0  39608-3 0  9994,2 53405  53.2196 343.5341 0001478  52.2051 277.8625 15.08820122  1303,6917.941,95.439,540.8290000000002,538.784,0.0
53405.0,STARLINK-4510,PAYLOAD,2022-10-05 08:00:01,15.08865483,0.0001598,53.2186,341.6672,55.243,19.2891,-0.0097015,-0.00151563,0.0,0 STARLINK-4510,1 53405U 22097T   22278.33334491 -.00151563  00000-0 -97015-2 0  9995,2 53405  53.2186 341.6672 0001598  55.2430  19.2891 15.08865483  9114,6917.802,95.436,540.773,538.562,0.0
53405.0,STARLINK-4510,PAYLOAD,2022-10-05 14:00:01,15.08818879,0.0001706999999999,53.2198,340.543,51.4157,301.8762,0.0010549,0.00016531,0.0,0 STARLINK-4510,1 53405U 22097T   22278.58335648  .00016531  00000-0  10549-2 0  9997,2 53405  53.2198 340.5430 0001707  51.4157 301.8762 15.08818879  9151,6917.945,95.439,540.991,538.629,0.0
53405.0,STARLINK-4510,PAYLOAD,2022-10-05 22:00:00,15.08815988,0.000153,53.2199,339.0453,53.5289,311.2824,0.00097216,0.00015208,0.0,0 STARLINK-4510,1 53405U 22097T   22278.91667824  .00015208  00000-0  97216-3 0  9995,2 53405  53.2199 339.0453 0001530  53.5289 311.2824 15.08815988  1304,6917.954000000002,95.439,540.877,538.76,0.0
53405.0,STARLINK-4510,PAYLOAD,2022-10-06 14:00:01,15.08817689,0.0001658,53.22,336.0544,47.7766,340.2154,0.0026033,0.00041362,0.0,0 STARLINK-4510,1 53405U 22097T   22279.58334491  .00041362  00000-0  26033-2 0  9998,2 53405  53.2200 336.0544 0001658  47.7766 340.2154 15.08817689  1309,6917.949000000001,95.439,540.961,538.6669999999998,0.0
53405.0,STARLINK-4510,PAYLOAD,2022-10-06 22:42:55,15.08814562,0.0001534,53.2197,334.4237,52.6166,148.8819,0.0023786,0.00037744,0.0,0 STARLINK-4510,1 53405U 22097T   22279.94646991  .00037744  00000-0  23786-2 0  9990,2 53405  53.2197 334.4237 0001534  52.6166 148.8819 15.08814562  1304,6917.958000000001,95.439,540.884,538.762,0.0
53405.0,STARLINK-4510,PAYLOAD,2022-10-07 00:00:00,15.08803412,0.0001512,53.2195,334.1835,53.8725,78.6147,0.004222,0.00067481,0.0,0 STARLINK-4510,1 53405U 22097T   22280.00001157  .00067481  00000-0  42220-2 0  9993,2 53405  53.2195 334.1835 0001512  53.8725  78.6147 15.08803412  9363,6917.9919999999975,95.44,540.903,538.811,0.0
53405.0,STARLINK-4510,PAYLOAD,2022-10-07 14:00:01,15.08822385,0.0001649,53.2198,331.5657,47.592,15.1914,0.0018070999999999,0.00028575,0.0,0 STARLINK-4510,1 53405U 22097T   22280.58334491  .00028575  00000-0  18071-2 0  9994,2 53405  53.2198 331.5657 0001649  47.5920  15.1914 15.08822385  1301,6917.934,95.439,540.94,538.658,0.0
53405.0,STARLINK-4510,PAYLOAD,2022-10-07 22:00:00,15.08829444,0.0001526,53.2192,330.0693,52.2785,22.1003,0.00011818,1.593e-05,0.0,0 STARLINK-4510,1 53405U 22097T   22280.91667824  .00001593  00000-0  11818-3 0  9994,2 53405  53.2192 330.0693 0001526  52.2785  22.1003 15.08829444  1305,6917.913000000001,95.438,540.8330000000002,538.722,0.0
53405.0,STARLINK-4510,PAYLOAD,2022-10-08 06:00:00,15.08754734,0.0001574,53.2179,328.5759,50.3531,35.5848,0.0080313,0.00129587,0.0,0 STARLINK-4510,1 53405U 22097T   22281.25001157  .00129587  00000-0  80313-2 0  9992,2 53405  53.2179 328.5759 0001574  50.3531  35.5848 15.08754734  9555,6918.141,95.443,541.095,538.9169999999998,0.0
53405.0,STARLINK-4510,PAYLOAD,2022-10-08 14:00:01,15.08800809,0.000181,53.2191,327.077,53.0408,44.495,0.0038464,0.00061395,0.0,0 STARLINK-4510,1 53405U 22097T   22281.58334491  .00061395  00000-0  38464-2 0  9990,2 53405  53.2191 327.0770 0001810  53.0408  44.4950 15.08800809  1305,6918.0,95.44,541.117,538.613,0.0
53405.0,STARLINK-4510,PAYLOAD,2022-10-08 22:00:00,15.08825244,0.0001613,53.219,325.5791,58.6109,50.5079,0.00034654,5.229e-05,0.0,0 STARLINK-4510,1 53405U 22097T   22281.91667824  .00005229  00000-0  34654-3 0  9998,2 53405  53.2190 325.5791 0001613  58.6109  50.5079 15.08825244  9656,6917.925,95.438,540.906,538.675,0.0
53405.0,STARLINK-4510,PAYLOAD,2022-10-09 14:00:01,15.08792947,0.0001647,53.2183,322.5881,49.6539,82.6293,0.004277,0.00068353,0.0,0 STARLINK-4510,1 53405U 22097T   22282.58334491  .00068353  00000-0  42770-2 0  9997,2 53405  53.2183 322.5881 0001647  49.6539  82.6293 15.08792947  1300,6918.024,95.441,541.029,538.75,0.0
53405.0,STARLINK-4510,PAYLOAD,2022-10-09 22:00:00,15.08827201,0.0001549,53.2181,321.0901,56.9025,86.9528,0.0014269,0.00022486,0.0,0 STARLINK-4510,1 53405U 22097T   22282.91667824  .00022486  00000-0  14269-2 0  9992,2 53405  53.2181 321.0901 0001549  56.9025  86.9528 15.08827201  1307,6917.92,95.438,540.856,538.7130000000002,0.0
53405.0,STARLINK-4510,PAYLOAD,2022-10-10 08:00:01,15.08833752,0.0001766999999999,53.2182,319.2222,56.6205,191.7268,0.0004841,7.424e-05,0.0,0 STARLINK-4510,1 53405U 22097T   22283.33334491  .00007424  00000-0  48410-3 0  9991,2 53405  53.2182 319.2222 0001767  56.6205 191.7268 15.08833752  9865,6917.899,95.438,540.987,538.5419999999998,0.0
53405.0,STARLINK-4510,PAYLOAD,2022-10-10 14:00:01,15.08847468,0.0001792,53.2177,318.1019,52.1168,114.9207,-0.00078864,-0.0001281999999999,0.0,0 STARLINK-4510,1 53405U 22097T   22283.58334491 -.00012820  00000-0 -78864-3 0  9992,2 53405  53.2177 318.1019 0001792  52.1168 114.9207 15.08847468  1308,6917.858,95.437,540.962,538.4830000000002,0.0
53405.0,STARLINK-4510,PAYLOAD,2022-10-10 22:00:01,15.08847008,0.0001571999999999,53.2176,316.6031,53.967,124.7601,-0.0038419,-0.00060927,0.0,0 STARLINK-4510,1 53405U 22097T   22283.91668981 -.00060927  00000-0 -38419-2 0  9995,2 53405  53.2176 316.6031 0001572  53.9670 124.7601 15.08847008  1304,6917.859,95.437,540.811,538.636,0.0
53405.0,STARLINK-4510,PAYLOAD,2022-10-11 06:00:00,15.08846974,0.0001564,53.2179,315.106,55.1539,135.0715,-0.0033339,-0.00052967,0.0,0 STARLINK-4510,1 53405U 22097T   22284.25001157 -.00052967  00000-0 -33339-2 0  9990,2 53405  53.2179 315.1060 0001564  55.1539 135.0715 15.08846974 10001,6917.859,95.437,540.806,538.6419999999998,0.0
